[{"OBJECT_NAME":"STARLINK-32467","OBJECT_ID":"2024-196G","EPOCH":"2026-03-09T12:07:49.640160","MEAN_MOTION":15.30191382,"ECCENTRICITY":0.00013009,"INCLINATION":53.1605,"RA_OF_ASC_NODE":102.5327,"ARG_OF_PERICENTER":81.9026,"MEAN_ANOMALY":278.2122,"EPHEMERIS_TYPE":0,"CLASSIFICATION_TYPE":"U","NORAD_CAT_ID":61713,"ELEMENT_SET_NO":999,"REV_AT_EPOCH":7712,"BSTAR":3.288037e-5,"MEAN_MOTION_DOT":6.14e-6,"MEAN_MOTION_DDOT":0},{"OBJECT_NAME":"CZ-2D R\/B","OBJECT_ID":"2025-227B","EPOCH":"2026-03-09T22:11:26.043072","MEAN_MOTION":15.30393637,"ECCENTRICITY":0.00198129,"INCLINATION":80.1514,"RA_OF_ASC_NODE":267.3771,"ARG_OF_PERICENTER":270.3655,"MEAN_ANOMALY":89.5307,"EPHEMERIS_TYPE":0,"CLASSIFICATION_TYPE":"U","NORAD_CAT_ID":65946,"ELEMENT_SET_NO":999,"REV_AT_EPOCH":2254,"BSTAR":0.00032251975,"MEAN_MOTION_DOT":9.557e-5,"MEAN_MOTION_DDOT":0}]
